#aV2020 10  6  0  0  0.00000000     288 DD+AD WGS84 FIT  NGA
## 2126 172800.00000000   300.00000000 59128 0.0000000000000
+   31     1  2  3  4  5  6  7  8  9 10 11 12 13 15 16 17 18
+         19 20 21 22 23 24 25 26 27 28 29 30 31 32  0  0  0
+          0  0  0  0  0  0  0  0  0  0  0  0  0  0  0  0  0
+          0  0  0  0  0  0  0  0  0  0  0  0  0  0  0  0  0
+          0  0  0  0  0  0  0  0  0  0  0  0  0  0  0  0  0
++         2  2  2  2  2  2  2  2  2  2  2  2  2  2  2  2  2
++         2  2  2  2  2  2  2  2  2  2  2  2  2  2  0  0  0
++         0  0  0  0  0  0  0  0  0  0  0  0  0  0  0  0  0
++         0  0  0  0  0  0  0  0  0  0  0  0  0  0  0  0  0
++         0  0  0  0  0  0  0  0  0  0  0  0  0  0  0  0  0
%c cc cc ccc ccc cccc cccc cccc cccc ccccc ccccc ccccc ccccc
%c cc cc ccc ccc cccc cccc cccc cccc ccccc ccccc ccccc ccccc
%f  0.0000000  0.000000000  0.00000000000  0.000000000000000
%f  0.0000000  0.000000000  0.00000000000  0.000000000000000
%i    0    0    0    0      0      0      0      0         0
%i    0    0    0    0      0      0      0      0         0
/*      NGA, ST. LOUIS,MO.                                  
/*   EPHEMERIS COMPUTED FROM 2 DAYS OF DATA                 
/*   EPOCHA v5 SMOOTHER                                     
/*   G1762 IERS2010 SATAF SATAPC                            
*  2020 10  6  3 25  0.00000000
P  1  -2006.363271 -14775.589882 -22203.754816     34.200366                    
V  1  26868.513230  -6196.567123   2032.787557     -0.016248                    
P  2 -18319.747618  15140.629966  12472.308321   -525.846191                    
V  2 -14784.277855   2530.509216 -26178.682945     -0.050069                    
P  3 -10501.378438 -21861.509231 -11027.389783   -318.489276                    
V  3  11176.203231   8444.043445 -27488.045794     -0.103875                    
P  4  -1043.020962 -23728.525917  11851.820790   -142.303759                    
V  4   6917.677614 -13587.933554 -26646.548562     -0.039655                    
P  5  -8231.531987  13162.090693  21382.172947    -22.724159                    
V  5 -20115.977618 -18841.607970   4011.149170     -0.008920                    
P  6 -25947.368721   5620.635038  -1231.516610   -331.207737                    
V  6   1058.744277  -2464.660179 -32128.712612     -0.027162                    
P  7 -19093.057505  -8029.614336  17218.121715   -387.431747                    
V  7  20148.987013  -6360.325732  19269.981846     -0.080046                    
P  8   5606.841122 -25742.618808  -1895.172325    -50.456412                    
V  8   3313.141761  -1629.526303  31994.876670     -0.013362                    
P  9 -10228.929718 -14924.439239  19379.355950   -296.147298                    
V  9   7785.220243 -23549.627208 -13999.778953     -0.053424                    
P 10  21200.883367   8002.345467 -13970.481312   -472.535888                    
V 10  11024.433650  14074.618902  24385.843490     -0.095743                    
P 11   5812.723207 -21156.496599 -15677.562211   -144.870858                    
V 11  16033.960263 -10659.881099  20604.198240      0.105670                    
P 12   7398.701040  22298.474418 -12765.773589     57.898135                    
V 12 -11433.498348 -10972.415436 -26128.895847     -0.050774                    
P 13 -13365.852301  22313.884376   4946.032723     51.967687                    
V 13    154.773049  -6969.879046  31162.842752      0.036942                    
P 15  -2207.500860  26127.230409  -3027.752127   -198.898633                    
V 15  -4626.222615   2753.313030  30947.587342      0.025980                    
P 16   7970.085734 -13142.202337  21379.048313   -218.539720                    
V 16  17909.142915  21136.048137   6688.815051     -0.051520                    
P 17 -15844.600168   3894.103403 -20520.318207    335.817774                    
V 17   8190.057818 -25729.386570 -11018.412405      0.053962                    
P 18  19688.383176   7169.877376  16340.117193    302.379770                    
V 18 -19852.702807   6249.517357  21114.144969      0.062474                    
P 19 -17013.027764  10580.435729 -17690.899357    -95.569692                    
V 19   7025.042528 -20747.972111 -19552.336619      0.050592                    
P 20  22029.421572  14873.436653  -2574.992364    526.497424                    
V 20    401.840186   4617.419344  30786.086801     -0.001232                    
P 21  16940.173957 -15060.490829 -12856.047622     54.720201                    
V 21  17680.429620  -2741.994765  25404.293789      0.040720                    
P 22  -4376.537482 -20130.355214 -16650.152506   -746.678975                    
V 22  17798.577729  12357.524289 -19238.296972      0.044367                    
P 23  20961.600345  15441.838880  -5334.341155     80.563140                    
V 23   2895.914001   6648.244523  30788.723441      0.069910                    
P 24   -903.039241  16481.809277 -20958.486116    -19.438115                    
V 24 -25340.939011   7073.340410   7105.100269     -0.003903                    
P 25  17077.238431  20386.111104  -2672.516549      0.967697                    
V 25  -3916.454349   -499.414527 -31407.061666      0.058138                    
P 26  17532.992542  -2972.374225  19765.196677    290.558355                    
V 26  17296.310020  18306.000298 -12333.019654      0.063072                    
P 27  12390.989466 -21476.199222   8890.250215   -411.910483                    
V 27   -896.591442  11785.674078  29570.150678     -0.087353                    
P 28 -19718.485783  -8417.967212 -14989.798659    670.959763                    
V 28 -11005.554279 -16953.182263  23264.033944     -0.043282                    
P 29   6550.921147  17823.207890  18512.492027   -209.587310                    
V 29  -9159.272732  21717.983550 -17676.046350     -0.079355                    
P 30 -25047.009285  -1399.387753   9100.376025   -314.737217                    
V 30  10556.638356  -5379.598926  28170.386677     -0.069528                    
P 31  26028.432425  -6382.882392    854.548443    -73.126313                    
V 31   1657.571574   2232.892293 -31347.840466     -0.024058                    
P 32  16211.068298  -4648.546949 -20394.007330    354.493709                    
V 32  -6003.856001  25469.227454 -10684.854603      0.042227                    
EOF
